{
"type": "FeatureCollection",
"name": "seed_poly",
"crs": { "type": "name", "properties": { "name": "urn:ogc:def:crs:EPSG::6514" } },
"features": [
{ "type": "Feature", "properties": { }, "geometry": { "type": "Polygon", "coordinates": [ [ [ 255681.547771593584912, 279526.382602906960528 ], [ 255693.96147617106908, 279522.620874247106258 ], [ 255663.540818608045811, 279408.638536453305278 ], [ 255643.380006889608921, 279412.855554377194494 ], [ 255681.547771593584912, 279526.382602906960528 ] ] ] } }
]
}
