{
  "type": "FeatureCollection",
  "name": "generated_waypoints",
  "crs": {
    "type": "name",
    "properties": {
      "name": "urn:ogc:def:crs:OGC:1.3:CRS84"
    }
  },
  "generation": {
    "source": "strip_2/seed_poly.geojson",
    "projection_epsg": 6514,
    "bearing_deg": 108.58,
    "bearing_source": "auto_longest_edge",
    "leg_space_m": 5.0,
    "start_corner": "south",
    "source_polygon": [
      [
        -114.00521119591967,
        46.676364774935905
      ],
      [
        -114.00504629979122,
        46.67633739488386
      ],
      [
        -114.00535776793815,
        46.675297396993784
      ],
      [
        -114.00562414442594,
        46.6753248588862
      ],
      [
        -114.00521119591967,
        46.676364774935905
      ]
    ]
  },
  "features": [
    {
      "type": "Feature",
      "properties": {
        "name": "wp_001"
      },
      "geometry": {
        "type": "Point",
        "coordinates": [
          -114.00536899825508,
          46.67527685820388
        ]
      }
    },
    {
      "type": "Feature",
      "properties": {
        "name": "wp_002"
      },
      "geometry": {
        "type": "Point",
        "coordinates": [
          -114.00495469952503,
          46.6763201620146
        ]
      }
    },
    {
      "type": "Feature",
      "properties": {
        "name": "wp_003"
      },
      "geometry": {
        "type": "Point",
        "coordinates": [
          -114.00501777196602,
          46.67633202791857
        ]
      }
    },
    {
      "type": "Feature",
      "properties": {
        "name": "wp_004"
      },
      "geometry": {
        "type": "Point",
        "coordinates": [
          -114.00543206956668,
          46.67528872387914
        ]
      }
    },
    {
      "type": "Feature",
      "properties": {
        "name": "wp_005"
      },
      "geometry": {
        "type": "Point",
        "coordinates": [
          -114.00549514090606,
          46.67530058951943
        ]
      }
    },
    {
      "type": "Feature",
      "properties": {
        "name": "wp_006"
      },
      "geometry": {
        "type": "Point",
        "coordinates": [
          -114.00508084443479,
          46.67634389378756
        ]
      }
    },
    {
      "type": "Feature",
      "properties": {
        "name": "wp_007"
      },
      "geometry": {
        "type": "Point",
        "coordinates": [
          -114.0051439169313,
          46.6763557596216
        ]
      }
    },
    {
      "type": "Feature",
      "properties": {
        "name": "wp_008"
      },
      "geometry": {
        "type": "Point",
        "coordinates": [
          -114.00555821227321,
          46.67531245512475
        ]
      }
    },
    {
      "type": "Feature",
      "properties": {
        "name": "wp_009"
      },
      "geometry": {
        "type": "Point",
        "coordinates": [
          -114.0056212836681,
          46.6753243206951
        ]
      }
    },
    {
      "type": "Feature",
      "properties": {
        "name": "wp_010"
      },
      "geometry": {
        "type": "Point",
        "coordinates": [
          -114.0052069894556,
          46.67636762542067
        ]
      }
    }
  ]
}