{
"type": "FeatureCollection",
"name": "seed_poly",
"crs": { "type": "name", "properties": { "name": "urn:ogc:def:crs:EPSG::6514" } },
"features": [
{ "type": "Feature", "properties": { }, "geometry": { "type": "Polygon", "coordinates": [ [ [ 255551.531079587846762, 279405.37152350920951 ], [ 255620.847964266809868, 279407.055693341593724 ], [ 255618.986513399460819, 279375.676950149296317 ], [ 255551.708360622840701, 279373.017734624561854 ], [ 255551.531079587846762, 279405.37152350920951 ] ] ] } }
]
}
