<?xml version="1.0" encoding="utf-8" ?>
<kml xmlns="http://www.opengis.net/kml/2.2">
<Document id="root_doc">
<Folder><name>flight_poly</name>
  <Placemark id="flight_poly.1">
	<Style><LineStyle><color>ff0000ff</color></LineStyle><PolyStyle><fill>0</fill></PolyStyle></Style>
      <Polygon><outerBoundaryIs><LinearRing><coordinates>-114.007057792421,46.676540052534 -114.003829380489,46.676706691042 -114.003734548117,46.6751635324393 -114.006842564224,46.6748887167961 -114.007057792421,46.676540052534</coordinates></LinearRing></outerBoundaryIs></Polygon>
  </Placemark>
</Folder>
</Document></kml>
