{
"type": "FeatureCollection",
"name": "seed_poly",
"crs": { "type": "name", "properties": { "name": "urn:ogc:def:crs:EPSG::6514" } },
"features": [
{ "type": "Feature", "properties": { }, "geometry": { "type": "Polygon", "coordinates": [ [ [ 254878.176293607510161, 281903.81338141777087 ], [ 254898.975607005588245, 281862.82055986620253 ], [ 254924.116524656623369, 281870.292157882999163 ], [ 254903.721081421652343, 281910.780141730676405 ], [ 254878.176293607510161, 281903.81338141777087 ] ] ] } }
]
}
