{
"type": "FeatureCollection",
"name": "flight_poly_new",
"crs": { "type": "name", "properties": { "name": "urn:ogc:def:crs:EPSG::6514" } },
"features": [
{ "type": "Feature", "properties": { }, "geometry": { "type": "Polygon", "coordinates": [ [ [ 254857.246413483575452, 281846.151111919258256, 0.0 ], [ 254849.749568662024103, 281981.094318712013774, 0.0 ], [ 255022.810414660954848, 281983.772212867334019, 0.0 ], [ 255043.78555228584446, 281856.293901972821914, 0.0 ], [ 254857.246413483575452, 281846.151111919258256, 0.0 ] ] ] } }
]
}
