{
"type": "FeatureCollection",
"name": "seed_poly",
"crs": { "type": "name", "properties": { "name": "urn:ogc:def:crs:EPSG::6514" } },
"features": [
{ "type": "Feature", "properties": { }, "geometry": { "type": "Polygon", "coordinates": [ [ [ 255006.127435391157633, 281875.508326188952196 ], [ 255035.70039045176236, 281884.310595198825467 ], [ 255025.795660831499845, 281930.340968763339333 ], [ 254997.678462034091353, 281924.286535445658956 ], [ 255006.127435391157633, 281875.508326188952196 ] ] ] } }
]
}
