{
"type": "FeatureCollection",
"name": "seed_poly",
"crs": { "type": "name", "properties": { "name": "urn:ogc:def:crs:EPSG::6514" } },
"features": [
{ "type": "Feature", "properties": { }, "geometry": { "type": "Polygon", "coordinates": [ [ [ 255655.170355726790149, 279539.20682386693079 ], [ 255669.78184605500428, 279529.987669255118817 ], [ 255608.030904786952306, 279414.487317136896309 ], [ 255595.680716533359373, 279421.61911598755978 ], [ 255655.170355726790149, 279539.20682386693079 ] ] ] } }
]
}
