{
"type": "FeatureCollection",
"name": "seed_poly",
"crs": { "type": "name", "properties": { "name": "urn:ogc:def:crs:EPSG::6514" } },
"features": [
{ "type": "Feature", "properties": { }, "geometry": { "type": "Polygon", "coordinates": [ [ [ 254947.493726771557704, 281969.161993526329752 ], [ 254997.258602769463323, 281974.333368908206467 ], [ 255001.924358929798473, 281949.479244746384211 ], [ 254951.139397646096768, 281941.942254025838338 ], [ 254947.493726771557704, 281969.161993526329752 ] ] ] } }
]
}
