{
"type": "FeatureCollection",
"name": "seed_poly",
"crs": { "type": "name", "properties": { "name": "urn:ogc:def:crs:EPSG::6514" } },
"features": [
{ "type": "Feature", "properties": { }, "geometry": { "type": "Polygon", "coordinates": [ [ [ 254934.979898233956192, 281894.00465442519635 ], [ 254996.428698861884186, 281905.513902336184401 ], [ 255000.397405038092984, 281883.355292852444109 ], [ 254939.808490748313488, 281871.97833514737431 ], [ 254939.808490748313488, 281871.97833514737431 ], [ 254934.979898233956192, 281894.00465442519635 ] ] ] } }
]
}
