{
  "type": "FeatureCollection",
  "name": "generated_waypoints",
  "crs": {
    "type": "name",
    "properties": {
      "name": "urn:ogc:def:crs:OGC:1.3:CRS84"
    }
  },
  "generation": {
    "source": "strip_2/seed_poly.geojson",
    "projection_epsg": 6514,
    "bearing_deg": 169.39,
    "bearing_source": "auto_longest_edge",
    "leg_space_m": 5.0,
    "start_corner": "south",
    "source_polygon": [
      [
        -114.01674245724809,
        46.69725356542749
      ],
      [
        -114.01594857845852,
        46.69738886221225
      ],
      [
        -114.01588004073963,
        46.6971918029959
      ],
      [
        -114.01666278600044,
        46.69705814151767
      ],
      [
        -114.01666278600044,
        46.69705814151767
      ],
      [
        -114.01674245724809,
        46.69725356542749
      ]
    ]
  },
  "features": [
    {
      "type": "Feature",
      "properties": {
        "name": "wp_001"
      },
      "geometry": {
        "type": "Point",
        "coordinates": [
          -114.01667555456189,
          46.69706773642927
        ]
      }
    },
    {
      "type": "Feature",
      "properties": {
        "name": "wp_002"
      },
      "geometry": {
        "type": "Point",
        "coordinates": [
          -114.0158816783432,
          46.697203032753265
        ]
      }
    },
    {
      "type": "Feature",
      "properties": {
        "name": "wp_003"
      },
      "geometry": {
        "type": "Point",
        "coordinates": [
          -114.01589740515665,
          46.69724671747906
        ]
      }
    },
    {
      "type": "Feature",
      "properties": {
        "name": "wp_004"
      },
      "geometry": {
        "type": "Point",
        "coordinates": [
          -114.01669128197935,
          46.697111421045875
        ]
      }
    },
    {
      "type": "Feature",
      "properties": {
        "name": "wp_005"
      },
      "geometry": {
        "type": "Point",
        "coordinates": [
          -114.01670700942235,
          46.69715510566017
        ]
      }
    },
    {
      "type": "Feature",
      "properties": {
        "name": "wp_006"
      },
      "geometry": {
        "type": "Point",
        "coordinates": [
          -114.01591313199557,
          46.69729040220254
        ]
      }
    },
    {
      "type": "Feature",
      "properties": {
        "name": "wp_007"
      },
      "geometry": {
        "type": "Point",
        "coordinates": [
          -114.01592885886001,
          46.697334086923696
        ]
      }
    },
    {
      "type": "Feature",
      "properties": {
        "name": "wp_008"
      },
      "geometry": {
        "type": "Point",
        "coordinates": [
          -114.01672273689081,
          46.697198790272104
        ]
      }
    },
    {
      "type": "Feature",
      "properties": {
        "name": "wp_009"
      },
      "geometry": {
        "type": "Point",
        "coordinates": [
          -114.01673846438479,
          46.69724247488173
        ]
      }
    },
    {
      "type": "Feature",
      "properties": {
        "name": "wp_010"
      },
      "geometry": {
        "type": "Point",
        "coordinates": [
          -114.01594458574993,
          46.69737777164253
        ]
      }
    }
  ]
}