{
"type": "FeatureCollection",
"name": "seed_poly",
"crs": { "type": "name", "properties": { "name": "urn:ogc:def:crs:EPSG::6514" } },
"features": [
{ "type": "Feature", "properties": { }, "geometry": { "type": "Polygon", "coordinates": [ [ [ 255752.736993274564156, 279531.207584573305212 ], [ 255768.47470148265711, 279529.901751134719234 ], [ 255754.998360951518407, 279405.657249554467853 ], [ 255738.984036907058908, 279407.041203484230209 ], [ 255752.736993274564156, 279531.207584573305212 ] ] ] } }
]
}
