{
"type": "FeatureCollection",
"name": "seed_poly",
"crs": { "type": "name", "properties": { "name": "urn:ogc:def:crs:EPSG::6514" } },
"features": [
{ "type": "Feature", "properties": { }, "geometry": { "type": "Polygon", "coordinates": [ [ [ 255500.88985109195346, 279585.064826085872483 ], [ 255521.881640880019404, 279581.908165967324749 ], [ 255515.726153648924083, 279536.610093266819604 ], [ 255491.104204724601004, 279541.029417432728224 ], [ 255500.88985109195346, 279585.064826085872483 ] ] ] } }
]
}
